[{"OBJECT_NAME":"STARLINK-30208","OBJECT_ID":"2023-102M","EPOCH":"2026-03-09T22:00:01.999584","MEAN_MOTION":15.18316824,"ECCENTRICITY":0.00014024,"INCLINATION":42.9996,"RA_OF_ASC_NODE":246.5084,"ARG_OF_PERICENTER":264.9324,"MEAN_ANOMALY":100.8486,"EPHEMERIS_TYPE":0,"CLASSIFICATION_TYPE":"U","NORAD_CAT_ID":57415,"ELEMENT_SET_NO":999,"REV_AT_EPOCH":577,"BSTAR":0.005884723,"MEAN_MOTION_DOT":0.00124918,"MEAN_MOTION_DDOT":0},{"OBJECT_NAME":"OBJECT D","OBJECT_ID":"2024-110D","EPOCH":"2026-03-09T23:35:59.225568","MEAN_MOTION":15.22946484,"ECCENTRICITY":0.00091951,"INCLINATION":97.5701,"RA_OF_ASC_NODE":165.3055,"ARG_OF_PERICENTER":232.8206,"MEAN_ANOMALY":127.2191,"EPHEMERIS_TYPE":0,"CLASSIFICATION_TYPE":"U","NORAD_CAT_ID":60015,"ELEMENT_SET_NO":999,"REV_AT_EPOCH":9715,"BSTAR":0.00037001945,"MEAN_MOTION_DOT":8.627e-5,"MEAN_MOTION_DDOT":0}]
